[{"OBJECT_NAME":"STARLINK-4779","OBJECT_ID":"2022-114AY","EPOCH":"2026-03-09T20:37:43.887936","MEAN_MOTION":15.08841957,"ECCENTRICITY":0.00013927,"INCLINATION":53.2169,"RA_OF_ASC_NODE":282.9252,"ARG_OF_PERICENTER":94.4587,"MEAN_ANOMALY":265.6564,"EPHEMERIS_TYPE":0,"CLASSIFICATION_TYPE":"U","NORAD_CAT_ID":53864,"ELEMENT_SET_NO":999,"REV_AT_EPOCH":19314,"BSTAR":4.0604848e-5,"MEAN_MOTION_DOT":3.58e-6,"MEAN_MOTION_DDOT":0},{"OBJECT_NAME":"CZ-6A DEB","OBJECT_ID":"2024-140LQ","EPOCH":"2026-03-09T12:39:56.979648","MEAN_MOTION":14.85929139,"ECCENTRICITY":0.01771612,"INCLINATION":88.9207,"RA_OF_ASC_NODE":273.583,"ARG_OF_PERICENTER":149.2711,"MEAN_ANOMALY":211.9037,"EPHEMERIS_TYPE":0,"CLASSIFICATION_TYPE":"U","NORAD_CAT_ID":60965,"ELEMENT_SET_NO":999,"REV_AT_EPOCH":8358,"BSTAR":0.00081105729,"MEAN_MOTION_DOT":9.447e-5,"MEAN_MOTION_DDOT":0}]
